{"type": "FeatureCollection", "features": [{"type": "Feature", "properties": {"norad_id": 24876, "name": "GPS BIIR-2  (PRN 13)", "group": "gnss", "lat": -2.216355432992938, "lon": 104.53396438916967, "alt_km": 20051.126334186272, "timestamp": "2025-12-08T05:48:09.277224+00:00", "meta": {"OBJECT_NAME": "GPS BIIR-2  (PRN 13)", "OBJECT_ID": "1997-035A", "EPOCH": "2025-12-07T17:55:28.688448", "MEAN_MOTION": 2.00563551, "ECCENTRICITY": 0.00967233, "INCLINATION": 55.8929, "RA_OF_ASC_NODE": 106.0642, "ARG_OF_PERICENTER": 57.0121, "MEAN_ANOMALY": 303.8828, "EPHEMERIS_TYPE": 0, "CLASSIFICATION_TYPE": "U", "NORAD_CAT_ID": 24876, "ELEMENT_SET_NO": 999, "REV_AT_EPOCH": 20811, "BSTAR": 0, "MEAN_MOTION_DOT": 1.2e-07, "MEAN_MOTION_DDOT": 0}, "tle": {"line1": "1 24876U 97035A   25341.74685982  .00000012  00000+0  00000+0 0  9996", "line2": "2 24876  55.8929 106.0642 0096723  57.0121 303.8828  2.00563551208110"}}, "geometry": {"type": "Point", "coordinates": [104.53396438916967, -2.216355432992938]}}, {"type": "Feature", "properties": {"norad_id": 26360, "name": "GPS BIIR-4  (PRN 20)", "group": "gnss", "lat": 55.040613354795134, "lon": 116.83258990285651, "alt_km": 20266.30518090845, "timestamp": "2025-12-08T05:48:09.277267+00:00", "meta": {"OBJECT_NAME": "GPS BIIR-4  (PRN 20)", "OBJECT_ID": "2000-025A", "EPOCH": "2025-12-07T20:28:59.861568", "MEAN_MOTION": 2.0056799, "ECCENTRICITY": 0.0038838, "INCLINATION": 55.0423, "RA_OF_ASC_NODE": 27.0356, "ARG_OF_PERICENTER": 241.5268, "MEAN_ANOMALY": 288.2176, "EPHEMERIS_TYPE": 0, "CLASSIFICATION_TYPE": "U", "NORAD_CAT_ID": 26360, "ELEMENT_SET_NO": 999, "REV_AT_EPOCH": 18743, "BSTAR": 0, "MEAN_MOTION_DOT": -8.5e-07, "MEAN_MOTION_DDOT": 0}, "tle": {"line1": "1 26360U 00025A   25341.85347062 -.00000085  00000+0  00000+0 0  9996", "line2": "2 26360  55.0423  27.0356 0038838 241.5268 288.2176  2.00567990187434"}}, "geometry": {"type": "Point", "coordinates": [116.83258990285651, 55.040613354795134]}}, {"type": "Feature", "properties": {"norad_id": 26407, "name": "GPS BIIR-5  (PRN 22)", "group": "gnss", "lat": -50.52934160392666, "lon": 164.14698769252433, "alt_km": 19860.153416153218, "timestamp": "2025-12-08T05:48:09.277285+00:00", "meta": {"OBJECT_NAME": "GPS BIIR-5  (PRN 22)", "OBJECT_ID": "2000-040A", "EPOCH": "2025-12-07T20:23:29.531904", "MEAN_MOTION": 2.00567809, "ECCENTRICITY": 0.01262773, "INCLINATION": 54.892, "RA_OF_ASC_NODE": 222.7635, "ARG_OF_PERICENTER": 301.7172, "MEAN_ANOMALY": 64.8523, "EPHEMERIS_TYPE": 0, "CLASSIFICATION_TYPE": "U", "NORAD_CAT_ID": 26407, "ELEMENT_SET_NO": 999, "REV_AT_EPOCH": 18611, "BSTAR": 0, "MEAN_MOTION_DOT": 2.2e-07, "MEAN_MOTION_DDOT": 0}, "tle": {"line1": "1 26407U 00040A   25341.84964736  .00000022  00000+0  00000+0 0  9997", "line2": "2 26407  54.8920 222.7635 0126277 301.7172  64.8523  2.00567809186114"}}, "geometry": {"type": "Point", "coordinates": [164.14698769252433, -50.52934160392666]}}, {"type": "Feature", "properties": {"norad_id": 27663, "name": "GPS BIIR-8  (PRN 16)", "group": "gnss", "lat": 48.33080272817746, "lon": -85.35190583216509, "alt_km": 19795.898304601757, "timestamp": "2025-12-08T05:48:09.277300+00:00", "meta": {"OBJECT_NAME": "GPS BIIR-8  (PRN 16)", "OBJECT_ID": "2003-005A", "EPOCH": "2025-12-07T16:01:06.566304", "MEAN_MOTION": 2.00571101, "ECCENTRICITY": 0.01472532, "INCLINATION": 54.9246, "RA_OF_ASC_NODE": 222.5801, "ARG_OF_PERICENTER": 51.7313, "MEAN_ANOMALY": 319.0971, "EPHEMERIS_TYPE": 0, "CLASSIFICATION_TYPE": "U", "NORAD_CAT_ID": 27663, "ELEMENT_SET_NO": 999, "REV_AT_EPOCH": 16747, "BSTAR": 0, "MEAN_MOTION_DOT": 2.5e-07, "MEAN_MOTION_DDOT": 0}, "tle": {"line1": "1 27663U 03005A   25341.66743711  .00000025  00000+0  00000+0 0  9997", "line2": "2 27663  54.9246 222.5801 0147253  51.7313 319.0971  2.00571101167470"}}, "geometry": {"type": "Point", "coordinates": [-85.35190583216509, 48.33080272817746]}}, {"type": "Feature", "properties": {"norad_id": 28190, "name": "GPS BIIR-11 (PRN 19)", "group": "gnss", "lat": -35.78118312781154, "lon": 133.68322161021447, "alt_km": 20032.081403155284, "timestamp": "2025-12-08T05:48:09.277314+00:00", "meta": {"OBJECT_NAME": "GPS BIIR-11 (PRN 19)", "OBJECT_ID": "2004-009A", "EPOCH": "2025-12-07T01:08:17.943360", "MEAN_MOTION": 2.00560868, "ECCENTRICITY": 0.01082706, "INCLINATION": 54.9909, "RA_OF_ASC_NODE": 283.4484, "ARG_OF_PERICENTER": 167.5454, "MEAN_ANOMALY": 274.5396, "EPHEMERIS_TYPE": 0, "CLASSIFICATION_TYPE": "U", "NORAD_CAT_ID": 28190, "ELEMENT_SET_NO": 999, "REV_AT_EPOCH": 15909, "BSTAR": 0, "MEAN_MOTION_DOT": -4.1e-07, "MEAN_MOTION_DDOT": 0}, "tle": {"line1": "1 28190U 04009A   25341.04742990 -.00000041  00000+0  00000+0 0  9997", "line2": "2 28190  54.9909 283.4484 0108270 167.5454 274.5396  2.00560868159096"}}, "geometry": {"type": "Point", "coordinates": [133.68322161021447, -35.78118312781154]}}, {"type": "Feature", "properties": {"norad_id": 28474, "name": "GPS BIIR-13 (PRN 02)", "group": "gnss", "lat": -52.972637396696236, "lon": -94.40798667099365, "alt_km": 19775.804217124656, "timestamp": "2025-12-08T05:48:09.277327+00:00", "meta": {"OBJECT_NAME": "GPS BIIR-13 (PRN 02)", "OBJECT_ID": "2004-045A", "EPOCH": "2025-12-07T20:16:35.351904", "MEAN_MOTION": 2.00569143, "ECCENTRICITY": 0.0170668, "INCLINATION": 55.2431, "RA_OF_ASC_NODE": 332.6027, "ARG_OF_PERICENTER": 309.0357, "MEAN_ANOMALY": 48.7901, "EPHEMERIS_TYPE": 0, "CLASSIFICATION_TYPE": "U", "NORAD_CAT_ID": 28474, "ELEMENT_SET_NO": 999, "REV_AT_EPOCH": 15458, "BSTAR": 0, "MEAN_MOTION_DOT": -8.2e-07, "MEAN_MOTION_DDOT": 0}, "tle": {"line1": "1 28474U 04045A   25341.84485361 -.00000082  00000+0  00000+0 0  9991", "line2": "2 28474  55.2431 332.6027 0170668 309.0357  48.7901  2.00569143154587"}}, "geometry": {"type": "Point", "coordinates": [-94.40798667099365, -52.972637396696236]}}, {"type": "Feature", "properties": {"norad_id": 28874, "name": "GPS BIIRM-1 (PRN 17)", "group": "gnss", "lat": -46.37048353747146, "lon": 148.00907287871226, "alt_km": 19965.136184650368, "timestamp": "2025-12-08T05:48:09.277341+00:00", "meta": {"OBJECT_NAME": "GPS BIIRM-1 (PRN 17)", "OBJECT_ID": "2005-038A", "EPOCH": "2025-12-07T21:56:50.807616", "MEAN_MOTION": 2.00578604, "ECCENTRICITY": 0.01317949, "INCLINATION": 55.0363, "RA_OF_ASC_NODE": 280.8951, "ARG_OF_PERICENTER": 293.3685, "MEAN_ANOMALY": 73.445, "EPHEMERIS_TYPE": 0, "CLASSIFICATION_TYPE": "U", "NORAD_CAT_ID": 28874, "ELEMENT_SET_NO": 999, "REV_AT_EPOCH": 14800, "BSTAR": 0, "MEAN_MOTION_DOT": -4.2e-07, "MEAN_MOTION_DDOT": 0}, "tle": {"line1": "1 28874U 05038A   25341.91447694 -.00000042  00000+0  00000+0 0  9999", "line2": "2 28874  55.0363 280.8951 0131794 293.3685  73.4450  2.00578604148005"}}, "geometry": {"type": "Point", "coordinates": [148.00907287871226, -46.37048353747146]}}, {"type": "Feature", "properties": {"norad_id": 28899, "name": "INMARSAT 4-F2 (SOUTHPAN/PRN 122)", "group": "gnss", "lat": -4.83507937404723, "lon": -52.1991133240375, "alt_km": 35777.61155805151, "timestamp": "2025-12-08T05:48:09.277355+00:00", "meta": {"OBJECT_NAME": "INMARSAT 4-F2 (SOUTHPAN/PRN 122)", "OBJECT_ID": "2005-044A", "EPOCH": "2025-12-07T22:52:41.557728", "MEAN_MOTION": 1.00271207, "ECCENTRICITY": 0.00033346, "INCLINATION": 4.8463, "RA_OF_ASC_NODE": 43.6765, "ARG_OF_PERICENTER": 215.2806, "MEAN_ANOMALY": 304.6867, "EPHEMERIS_TYPE": 0, "CLASSIFICATION_TYPE": "U", "NORAD_CAT_ID": 28899, "ELEMENT_SET_NO": 999, "REV_AT_EPOCH": 7360, "BSTAR": 0, "MEAN_MOTION_DOT": -2.59e-06, "MEAN_MOTION_DDOT": 0}, "tle": {"line1": "1 28899U 05044A   25341.95325877 -.00000259  00000+0  00000+0 0  9995", "line2": "2 28899   4.8463  43.6765 0003334 215.2806 304.6867  1.00271207 73601"}}, "geometry": {"type": "Point", "coordinates": [-52.1991133240375, -4.83507937404723]}}, {"type": "Feature", "properties": {"norad_id": 29486, "name": "GPS BIIRM-2 (PRN 31)", "group": "gnss", "lat": 25.666936068686763, "lon": -41.00664542668889, "alt_km": 20206.85028547369, "timestamp": "2025-12-08T05:48:09.277368+00:00", "meta": {"OBJECT_NAME": "GPS BIIRM-2 (PRN 31)", "OBJECT_ID": "2006-042A", "EPOCH": "2025-12-07T13:22:14.545056", "MEAN_MOTION": 2.0055427, "ECCENTRICITY": 0.01073634, "INCLINATION": 54.6934, "RA_OF_ASC_NODE": 158.9464, "ARG_OF_PERICENTER": 51.8351, "MEAN_ANOMALY": 320.4932, "EPHEMERIS_TYPE": 0, "CLASSIFICATION_TYPE": "U", "NORAD_CAT_ID": 29486, "ELEMENT_SET_NO": 999, "REV_AT_EPOCH": 14055, "BSTAR": 0, "MEAN_MOTION_DOT": 5.8e-07, "MEAN_MOTION_DDOT": 0}, "tle": {"line1": "1 29486U 06042A   25341.55711279  .00000058  00000+0  00000+0 0  9994", "line2": "2 29486  54.6934 158.9464 0107363  51.8351 320.4932  2.00554270140555"}}, "geometry": {"type": "Point", "coordinates": [-41.00664542668889, 25.666936068686763]}}, {"type": "Feature", "properties": {"norad_id": 29601, "name": "GPS BIIRM-3 (PRN 12)", "group": "gnss", "lat": -20.150481908449095, "lon": 56.49008080673402, "alt_km": 20289.88269907604, "timestamp": "2025-12-08T05:48:09.277380+00:00", "meta": {"OBJECT_NAME": "GPS BIIRM-3 (PRN 12)", "OBJECT_ID": "2006-052A", "EPOCH": "2025-12-06T23:07:38.134848", "MEAN_MOTION": 2.0057305, "ECCENTRICITY": 0.00876251, "INCLINATION": 54.9717, "RA_OF_ASC_NODE": 221.6275, "ARG_OF_PERICENTER": 87.379, "MEAN_ANOMALY": 273.714, "EPHEMERIS_TYPE": 0, "CLASSIFICATION_TYPE": "U", "NORAD_CAT_ID": 29601, "ELEMENT_SET_NO": 999, "REV_AT_EPOCH": 13955, "BSTAR": 0, "MEAN_MOTION_DOT": 3.6e-07, "MEAN_MOTION_DDOT": 0}, "tle": {"line1": "1 29601U 06052A   25340.96363582  .00000036  00000+0  00000+0 0  9994", "line2": "2 29601  54.9717 221.6275 0087625  87.3790 273.7140  2.00573050139559"}}, "geometry": {"type": "Point", "coordinates": [56.49008080673402, -20.150481908449095]}}]}